{
    "links": {
        "self": "http://www.neowsapp.com/rest/v1/neo/3735271?api_key=iIulBulltgU6a56xZRHN4H3l9WmuAYTsLGpBGhQ2"
    },
    "id": "3735271",
    "neo_reference_id": "3735271",
    "name": "(2015 VE146)",
    "designation": "2015 VE146",
    "nasa_jpl_url": "http://ssd.jpl.nasa.gov/sbdb.cgi?sstr=3735271",
    "absolute_magnitude_h": 21.9,
    "estimated_diameter": {
        "kilometers": {
            "estimated_diameter_min": 0.1108038821,
            "estimated_diameter_max": 0.2477650126
        },
        "meters": {
            "estimated_diameter_min": 110.8038821264,
            "estimated_diameter_max": 247.7650126055
        },
        "miles": {
            "estimated_diameter_min": 0.068850319,
            "estimated_diameter_max": 0.1539539936
        },
        "feet": {
            "estimated_diameter_min": 363.5298086356,
            "estimated_diameter_max": 812.8773639568
        }
    },
    "is_potentially_hazardous_asteroid": false,
    "close_approach_data": [
        {
            "close_approach_date": "2011-07-07",
            "close_approach_date_full": "2011-Jul-07 00:41",
            "epoch_date_close_approach": 1309999260000,
            "relative_velocity": {
                "kilometers_per_second": "16.4776217857",
                "kilometers_per_hour": "59319.4384283429",
                "miles_per_hour": "36858.7921723223"
            },
            "miss_distance": {
                "astronomical": "0.4983243136",
                "lunar": "193.8481579904",
                "kilometers": "74548255.883772032",
                "miles": "46322138.2200847616"
            },
            "orbiting_body": "Earth"
        },
        {
            "close_approach_date": "2015-11-09",
            "close_approach_date_full": "2015-Nov-09 20:39",
            "epoch_date_close_approach": 1447101540000,
            "relative_velocity": {
                "kilometers_per_second": "22.1565150767",
                "kilometers_per_hour": "79763.4542759929",
                "miles_per_hour": "49561.9085749913"
            },
            "miss_distance": {
                "astronomical": "0.164416508",
                "lunar": "63.958021612",
                "kilometers": "24596359.38963796",
                "miles": "15283469.020845448"
            },
            "orbiting_body": "Earth"
        }
    ],
    "orbital_data": {
        "orbit_id": "10",
        "orbit_determination_date": "2017-04-06 08:30:35",
        "first_observation_date": "2015-11-14",
        "last_observation_date": "2015-12-06",
        "data_arc_in_days": 22,
        "observations_used": 51,
        "orbit_uncertainty": "7",
        "minimum_orbit_intersection": ".134535",
        "jupiter_tisserand_invariant": "2.983",
        "epoch_osculation": "2459000.5",
        "eccentricity": ".6299911094437126",
        "semi_major_axis": "2.562870889370217",
        "inclination": "29.07574062136846",
        "ascending_node_longitude": "50.65251155908804",
        "orbital_period": "1498.609630139241",
        "perihelion_distance": ".9482850144148797",
        "perihelion_argument": "301.0754963963996",
        "aphelion_distance": "4.177456764325555",
        "perihelion_time": "2458794.048350385684",
        "mean_anomaly": "49.59436558154788",
        "mean_motion": ".240222665569386",
        "equinox": "J2000",
        "orbit_class": {
            "orbit_class_type": "APO",
            "orbit_class_description": "Near-Earth asteroid orbits which cross the Earth’s orbit similar to that of 1862 Apollo",
            "orbit_class_range": "a (semi-major axis) > 1.0 AU; q (perihelion) < 1.017 AU"
        }
    },
    "is_sentry_object": false
}